# From MPEC 2026-E44
C/2019 H1 (NEOWISE),e,104.3752,269.3065,19.2013,220.2814,0.0003015,0.99165374,0.0000,04/25.9219/2019,2000,g 15.5,4.0
# From MPEC 2026-E44
C/2019 J1 (Lemmon),e,24.5249,98.2289,167.5058,65.53236,0.0018579,0.96222019,4.8254,05/16.0/2026,2000,g 12.0,4.0
# From MPEC 2026-FR0
C/2019 J2 (Palomar),e,105.1147,25.3613,98.4681,589.1350,0.0000689,0.99709711,0.0000,07/21.5638/2019,2000,g 13.0,4.0
# From MPEC 2026-E44
C/2019 J3 (ATLAS),e,131.3036,270.6494,16.4388,6206,0.0000020,0.99961979,0.0000,08/01.0503/2019,2000,g 13.5,4.0
# From MPEC 2026-E44
C/2019 JU6 (ATLAS),e,148.2708,21.6087,94.6430,5415,0.0000025,0.99962561,0.0000,06/02.6331/2019,2000,g 14.5,4.0
# From MPEC 2026-E44
C/2019 K1 (ATLAS),e,87.0469,73.3402,265.8102,2382,0.0000085,0.99914985,0.0000,02/09.8779/2020,2000,g 10.0,4.0
# From MPEC 2026-E44
C/2019 K4 (Ye),e,105.2761,180.3889,140.0335,1707,0.0000140,0.99866759,0.0000,06/15.5699/2019,2000,g 12.5,4.0
# From MPEC 2026-E44
C/2019 K5 (Young),e,15.2754,177.3027,175.1408,165.5998,0.0004625,0.98756742,0.0000,06/20.0232/2019,2000,g 13.0,4.0
# From MPEC 2026-E44
C/2019 K6 (PANSTARRS),e,132.4091,42.9418,187.3850,824.4221,0.0000416,0.99524811,0.0000,05/17.6636/2020,2000,g 11.5,4.0
# From MPEC 2026-E44
C/2019 K7 (Smith),e,103.4602,308.0517,27.3002,13375,0.0000006,0.99966576,0.0000,06/16.3736/2020,2000,g  6.0,4.0
# From MPEC 2026-FR0
C/2019 K8 (ATLAS),e,93.0302,290.9695,85.3840,1700,0.0000141,0.99811688,0.0000,07/18.9454/2019,2000,g 11.5,4.0
# From MPEC 2026-E44
C/2019 L1 (PANSTARRS),e,9.9765,254.4325,49.9557,9.807677,0.0320889,0.70376940,79.4422,05/16.0/2026,2000,g 13.5,4.0
# From MPEC 2026-E44
C/2019 L2 (NEOWISE),e,152.0962,12.6088,18.9173,25.90702,0.0074744,0.93758791,19.4201,05/16.0/2026,2000,g 16.0,4.0
# From MPEC 2026-E44
P/2019 LD2 (ATLAS),e,11.7389,177.5277,116.0442,5.145060,0.0844537,0.13641319,194.8789,05/16.0/2026,2000,g  8.5,4.0
# From MPEC 2026-E44
C/2019 L3 (ATLAS),h,01/10.2358/2022,48.3471,290.7094,171.8216,1.003541,3.563302,2000,4.5,4.0
# From MPEC 2026-E44
P/2019 LM4 (Palomar),e,36.4092,72.8627,68.2445,5.700983,0.0724068,0.58658357,182.4892,05/16.0/2026,2000,g  9.5,4.0
# From MPEC 2026-E44
C/2019 LB7 (Kleyna),e,164.2687,4.0778,336.8236,35.09400,0.0047408,0.92902684,12.3511,05/16.0/2026,2000,g 17.0,4.0
# From MPEC 2026-E44
C/2019 M3 (ATLAS),e,99.7013,155.1038,87.9213,5980,0.0000021,0.99959500,0.0000,01/01.0918/2019,2000,g 12.2,4.0
# From MPEC 2026-E44
C/2019 M4 (TESS),e,65.7161,52.6316,260.3104,13489,0.0000006,0.99931871,0.0000,09/08.1689/2019,2000,g  5.0,4.0
# From MPEC 2026-E44
C/2019 N1 (ATLAS),e,82.6116,13.4730,193.3418,934.2370,0.0000345,0.99817736,0.0000,11/30.4138/2020,2000,g  7.5,4.0
# From MPEC 2026-FR0
A/2019 N2,e,89.5413,276.4103,346.5200,75.01548,0.0015170,0.97438120,0.0000,08/21.4030/2019,2000,g 12.5,2.0
# From MPEC 2026-E44
C/2019 NJ3 (Lemmon),h,10/21.6655/2020,99.3025,142.4923,246.8699,1.001507,4.362424,2000,9.0,4.0
# From MPEC 2026-J34
C/2019 O2 (PANSTARRS),e,93.2785,48.2666,129.5593,58.86149,0.0021825,0.83554908,2.4797,05/16.0/2026,2000,g  5.0,4.0
# From MPEC 2026-E44
C/2019 O3 (Palomar),h,03/07.0649/2021,89.7896,300.4845,60.0654,1.001382,8.819858,2000,3.5,4.0
# From MPEC 2026-E44
A/2019 O4,e,114.9496,354.9041,61.8131,33.25808,0.0051388,0.89060892,11.7466,05/16.0/2026,2000,g 15.5,2.0
# From MPEC 2026-E44
C/2019 Q1 (Lemmon),h,07/22.6358/2020,155.7054,42.4790,56.2266,1.002521,4.997599,2000,8.5,4.0
# From MPEC 2026-E44
A/2019 Q2,e,158.9361,188.1955,176.5466,61.42146,0.0020475,0.97954117,0.0000,07/24.5490/2019,2000,g 18.0,2.0
# From MPEC 2026-E44
C/2019 Q3 (PANSTARRS),h,08/18.5438/2018,65.5872,151.4601,152.6309,1.000629,7.260109,2000,8.5,4.0
# From MPEC 2026-E44
P/2019 S2 (PANSTARRS),e,10.4619,93.1237,216.9271,4.748213,0.0952596,0.20464097,252.2535,05/16.0/2026,2000,g 13.5,4.0
# From MPEC 2026-E44
P/2019 S3 (PANSTARRS),e,8.6916,150.1072,213.1406,3.413560,0.1562762,0.47061190,23.0917,05/16.0/2026,2000,g 18.3,4.0
# From MPEC 2026-E44
C/2019 S4 (Lemmon),e,92.0582,63.1370,71.3743,253.8119,0.0002437,0.98645931,0.0000,04/10.0680/2020,2000,g 11.0,4.0
# From MPEC 2026-E44
A/2019 T1,e,120.7864,6.9120,90.9335,38.62518,0.0041058,0.88938335,7.9959,05/16.0/2026,2000,g 13.0,2.0
# From MPEC 2026-E44
C/2019 T2 (Lemmon),e,111.3282,155.6491,239.3573,2435,0.0000082,0.99891493,0.0000,04/22.0265/2021,2000,g  9.0,4.0
# From MPEC 2026-FC5
C/2019 T3 (ATLAS),e,121.8922,139.5534,112.4895,6805,0.0000018,0.99912537,0.0000,03/05.1991/2021,2000,g  6.8,4.0
# From MPEC 2026-E44
C/2019 T4 (ATLAS),e,53.6255,199.8646,351.1233,910.6976,0.0000359,0.99534818,0.0000,06/08.8357/2022,2000,g  5.0,4.0
# From MPEC 2026-E44
P/2019 T5 (ATLAS),e,33.4866,247.6168,189.6541,8.011652,0.0434631,0.80951403,107.6745,05/16.0/2026,2000,g 15.0,4.0
# From MPEC 2026-E44
P/2019 T6 (PANSTARRS),e,18.7005,71.2126,329.1078,5.444888,0.0775748,0.62188841,184.6976,05/16.0/2026,2000,g 15.5,4.0
# From MPEC 2026-E44
P/2019 U4 (PANSTARRS),e,11.6987,199.9749,181.1331,3.517484,0.1494018,0.47552392,2.5846,05/16.0/2026,2000,g 19.0,4.0
# From MPEC 2026-E44
C/2019 U5 (PANSTARRS),e,113.5174,2.5861,181.4485,36160,0.0000001,0.99989973,0.0000,03/29.2346/2023,2000,g  4.5,4.0
# From MPEC 2026-E44
C/2019 U6 (Lemmon),e,61.0320,235.6690,329.4157,298.9599,0.0001907,0.99697843,0.0000,06/18.5347/2020,2000,g 10.0,4.0
# From MPEC 2026-E44
C/2019 V1 (Borisov),e,61.9341,83.1553,51.2124,3554,0.0000047,0.99912950,0.0000,07/18.1346/2020,2000,g 11.0,4.0
# From MPEC 2026-E44
P/2019 V2 (Groeller),e,11.8083,189.1048,335.6873,7.495833,0.0480258,0.33222979,97.7632,05/16.0/2026,2000,g 10.0,4.0
# From MPEC 2026-E44
P/2019 W1 (PANSTARRS),e,23.4621,35.3416,18.9369,4.548431,0.1016042,0.26698486,260.1323,05/16.0/2026,2000,g 12.9,4.0
# From MPEC 2026-E44
P/2019 X1 (Pruyne),e,10.2410,43.6512,37.0995,6.182276,0.0641182,0.30343359,159.4625,05/16.0/2026,2000,g 10.4,4.0
# From MPEC 2026-E44
P/2019 X2 (Pan-STARRS),e,15.8985,250.8490,213.5396,3.632801,0.1423448,0.50049074,333.9026,05/16.0/2026,2000,g 18.0,4.0
# From MPEC 2026-E44
C/2019 Y1 (ATLAS),e,73.2435,31.2665,57.4497,251.0364,0.0002478,0.99668413,0.0000,03/17.4585/2020,2000,g 13.7,4.0
# From MPEC 2026-E44
C/2019 Y4 (ATLAS),e,44.8785,120.8150,177.3823,314.7288,0.0001765,0.99918287,0.0000,05/28.8525/2020,2000,g 11.8,6.0
# From MPEC 2026-E44
C/2019 Y4-A,h,05/28.9559/2020,45.5247,121.3551,177.1236,1.002653,0.254395,2000,11.9,6.0
# From MPEC 2026-E44
C/2019 Y4-B,e,44.6893,120.6780,177.4575,115.9292,0.0007896,0.99777388,0.0000,05/28.8258/2020,2000,g 12.1,6.0
# From MPEC 2026-E44
C/2019 Y5 (PANSTARRS),e,82.7965,51.7999,303.6916,672.3633,0.0000565,0.99265480,0.0000,08/15.9449/2019,2000,g 11.0,4.0
# From MPEC 2026-E44
A/2020 A1,e,149.0315,119.0406,302.4349,25.46360,0.0076705,0.93413788,18.1008,05/16.0/2026,2000,g 18.0,2.0
# From MPEC 2026-E44
C/2020 A2 (NEOWISE),e,120.4983,286.1822,68.0386,878.9935,0.0000378,0.99888734,0.0000,01/06.0677/2020,2000,g 13.5,4.0
# From MPEC 2026-E44
C/2020 A3 (ATLAS),e,146.6126,120.7948,268.2161,2967,0.0000061,0.99806026,0.0000,06/25.4785/2019,2000,g  8.0,4.0
# From MPEC 2026-E44
P/2020 A4 (PANSTARRS-Lemmon),e,25.0097,312.2405,144.9938,8.207859,0.0419140,0.65427438,99.0966,05/16.0/2026,2000,g 15.0,4.0
# From MPEC 2026-E44
A/2020 B1,e,18.5521,309.7365,154.9920,52.39783,0.0025986,0.96674980,6.0574,05/16.0/2026,2000,g 21.0,2.0
# From MPEC 2026-E44
C/2020 B2 (Lemmon),e,55.7231,354.1444,143.5466,66.45121,0.0018195,0.95852814,4.1862,05/16.0/2026,2000,g 10.0,4.0
# From MPEC 2026-E44
C/2020 B3 (Rankin),e,20.7072,185.6792,325.0133,1183,0.0000242,0.99718666,0.0000,10/21.5430/2019,2000,g 13.0,4.0
# From MPEC 2026-E44
P/2020 B4 (Sheppard),e,11.6010,185.9232,342.1995,7.978220,0.0437366,0.19331251,71.5686,05/16.0/2026,2000,g 10.5,4.0
# From MPEC 2026-E44
C/2020 F2 (ATLAS),h,07/11.7822/2022,163.5904,250.2906,48.2204,1.001193,8.814763,2000,4.5,4.0
# From MPEC 2026-E44
C/2020 F3 (NEOWISE),e,129.0339,61.0294,37.2683,413.9363,0.0001170,0.99929338,0.0000,07/05.3832/2020,2000,g  7.5,5.2
# From MPEC 2026-E44
C/2020 F5 (MASTER),e,52.2482,350.5769,310.5444,161.1702,0.0004817,0.97317754,0.0000,03/15.7441/2021,2000,g  6.5,3.2
# From MPEC 2026-E44
C/2020 F6 (PANSTARRS),e,174.5859,207.7903,344.2667,334.3607,0.0001612,0.98953457,0.0000,04/09.2336/2020,2000,g 14.5,2.8
# From MPEC 2026-E44
C/2020 F7 (Lemmon),e,93.9989,321.8089,228.0226,606.1848,0.0000660,0.99119539,0.0000,11/14.3505/2021,2000,g  7.0,4.0
# From MPEC 2026-E44
C/2020 F8 (SWAN),e,110.5994,259.8550,68.1823,1953,0.0000114,0.99977719,0.0000,05/25.0884/2020,2000,g 10.0,4.0
# From MPEC 2026-E44
P/2020 G1 (Pimentel),e,18.5048,240.1184,207.6216,3.595235,0.1445817,0.86042721,324.8843,05/16.0/2026,2000,g 17.0,4.0
# From MPEC 2026-E44
C/2020 H2 (Pruyne),e,124.7855,277.6729,26.5748,175.8678,0.0004226,0.99528751,0.0000,04/25.9865/2020,2000,g 14.0,3.2
# From MPEC 2026-FR0
C/2020 H3 (Wierzchos),h,05/31.9338/2020,62.2764,270.6361,29.5234,1.000259,2.306179,2000,13.0,4.0
# From MPEC 2026-E44
C/2020 H4 (Leonard),e,84.2863,307.3963,116.8695,127.0742,0.0006880,0.99259004,0.0000,08/28.5405/2020,2000,g 15.0,3.2
# From MPEC 2026-E44
C/2020 H5 (Robinson),e,70.2046,210.5968,326.2708,7684,0.0000015,0.99878520,0.0000,12/10.2166/2020,2000,g  5.0,4.0
# From MPEC 2026-E44
C/2020 H6 (ATLAS),e,80.0081,213.6605,20.1705,1749,0.0000135,0.99731554,0.0000,09/29.3175/2021,2000,g  8.0,3.2
# From MPEC 2026-FR0
C/2020 H7 (Lemmon),e,135.8177,323.5162,82.6153,6876,0.0000017,0.99935871,0.0000,06/02.1612/2020,2000,g 11.0,4.0
# From MPEC 2026-E44
C/2020 H8 (PANSTARRS),e,99.6895,68.4154,128.7584,579.0511,0.0000707,0.99195671,0.0000,06/04.9538/2020,2000,g 10.5,4.0
# From MPEC 2026-E44
A/2020 H9,e,137.8708,213.0512,312.5248,328.0005,0.0001659,0.99219644,0.0000,12/21.2744/2019,2000,g 18.0,2.0
# From MPEC 2026-E44
C/2020 H11 (PANSTARRS-Lemmon),e,151.3677,303.0585,91.3453,5204,0.0000026,0.99853535,0.0000,09/11.2388/2020,2000,g  8.5,4.0
# From MPEC 2026-E44
C/2020 J1 (SONEAR),e,142.3116,226.5485,341.5069,3664,0.0000044,0.99908738,0.0000,04/17.3978/2021,2000,g  8.5,3.2
# From MPEC 2026-E43
